[{"OBJECT_NAME":"STARLINK-31131","OBJECT_ID":"2023-211G","EPOCH":"2026-03-09T01:45:42.965280","MEAN_MOTION":15.27583424,"ECCENTRICITY":5.739e-5,"INCLINATION":43.0006,"RA_OF_ASC_NODE":77.9577,"ARG_OF_PERICENTER":106.9553,"MEAN_ANOMALY":253.1361,"EPHEMERIS_TYPE":0,"CLASSIFICATION_TYPE":"U","NORAD_CAT_ID":58673,"ELEMENT_SET_NO":999,"REV_AT_EPOCH":12377,"BSTAR":-9.3708123e-5,"MEAN_MOTION_DOT":-2.84e-5,"MEAN_MOTION_DDOT":0},{"OBJECT_NAME":"COSMOS 2251 DEB","OBJECT_ID":"1993-036BPR","EPOCH":"2026-02-24T07:57:21.236256","MEAN_MOTION":15.23776337,"ECCENTRICITY":0.00166824,"INCLINATION":73.9787,"RA_OF_ASC_NODE":76.2838,"ARG_OF_PERICENTER":284.1156,"MEAN_ANOMALY":75.8189,"EPHEMERIS_TYPE":0,"CLASSIFICATION_TYPE":"U","NORAD_CAT_ID":37966,"ELEMENT_SET_NO":999,"REV_AT_EPOCH":86459,"BSTAR":0.0031189174,"MEAN_MOTION_DOT":0.00076101,"MEAN_MOTION_DDOT":0}]
